GLOBALSTAR M023         
1 25621U 99004A   25091.47298626 -.00000043  00000+0  33661-3 0  9998
2 25621  52.0103 287.0411 0009129 321.5845  52.8331 12.62504756206043
GLOBALSTAR M040         
1 25622U 99004B   25091.49925354 -.00000058  00000+0  25411-3 0  9996
2 25622  51.9911 291.0008 0000687 155.2671 227.1087 12.62006434205577
GLOBALSTAR M022         
1 25649U 99012A   25091.45206140 -.00000037  00000+0  59948-3 0  9994
2 25649  52.0019 139.5031 0002303  29.2734 103.7679 12.02498099167148
GLOBALSTAR M041         
1 25650U 99012B   25091.54039482 -.00000047  00000+0  49096-3 0  9993
2 25650  52.0054  18.3778 0001613 146.5699 213.5240 11.96669930169105
GLOBALSTAR M046         
1 25651U 99012C   25091.30629728  .00000068  00000+0  17223-2 0  9994
2 25651  52.0039  92.8366 0002343  98.5132 274.8316 12.09409474174366
GLOBALSTAR M037         
1 25652U 99012D   25091.40342845 -.00000051  00000+0  29252-3 0  9997
2 25652  52.0009  57.8948 0002252  23.9901 147.1972 12.62441467201577
